start=new Date('2021-10-19T00:00:00.000Z').valueOf();
sats=[{"PERIOD":"95.509","SEMIMAJOR_AXIS":"6921.315","COUNTRY_CODE":"US","BSTAR":"0.00053929000000","EPOCH":"2021-10-18T21:08:14.646048","CENTER_NAME":"EARTH","LAUNCH_DATE":"2019-11-11","MEAN_ELEMENT_THEORY":"SGP4","PERIAPSIS":"542.093","RA_OF_ASC_NODE":"199.4674","SITE":"AFETR","FILE":"3170620","ECCENTRICITY":"0.00015710","GP_ID":"187535618","MEAN_MOTION_DDOT":"0.0000000000000","MEAN_MOTION_DOT":"0.00008049","OBJECT_NAME":"STARLINK-1034","OBJECT_TYPE":"PAYLOAD","MEAN_MOTION":"15.07716897","REF_FRAME":"TEME","EPHEMERIS_TYPE":"0","CLASSIFICATION_TYPE":"U","NORAD_CAT_ID":"44739","ELEMENT_SET_NO":"999","TIME_SYSTEM":"UTC","ARG_OF_PERICENTER":"74.4135","MEAN_ANOMALY":"285.7027","REV_AT_EPOCH":"10689","OBJECT_ID":"2019-074AC","RCS_SIZE":"LARGE","INCLINATION":"52.9984","DECAY_DATE":null,"APOAPSIS":"544.268","TLE_LINE2":"2 44739  52.9984 199.4674 0001571  74.4135 285.7027 15.07716897106890","TLE_LINE1":"1 44739U 19074AC  21291.88072507  .00008049  00000-0  53929-3 0  9992"},{"OBJECT_ID":"2019-074AD","REV_AT_EPOCH":"10689","INCLINATION":"53.0545","DECAY_DATE":null,"RCS_SIZE":"LARGE","APOAPSIS":"548.519","TLE_LINE2":"2 44740  53.0545 201.8445 0001880  74.2534 285.8663 15.06398840106895","TLE_LINE1":"1 44740U 19074AD  21291.89451377  .00001480  00000-0  11824-3 0  9991","CLASSIFICATION_TYPE":"U","NORAD_CAT_ID":"44740","ELEMENT_SET_NO":"999","TIME_SYSTEM":"UTC","ARG_OF_PERICENTER":"74.2534","MEAN_ANOMALY":"285.8663","FILE":"3170620","SITE":"AFETR","MEAN_MOTION_DDOT":"0.0000000000000","MEAN_MOTION_DOT":"0.00001480","GP_ID":"187535869","ECCENTRICITY":"0.00018800","OBJECT_TYPE":"PAYLOAD","OBJECT_NAME":"STARLINK-1035","REF_FRAME":"TEME","EPHEMERIS_TYPE":"0","MEAN_MOTION":"15.06398840","PERIOD":"95.592","SEMIMAJOR_AXIS":"6925.352","COUNTRY_CODE":"US","BSTAR":"0.00011824000000","EPOCH":"2021-10-18T21:28:05.989728","CENTER_NAME":"EARTH","LAUNCH_DATE":"2019-11-11","RA_OF_ASC_NODE":"201.8445","PERIAPSIS":"545.915","MEAN_ELEMENT_THEORY":"SGP4"},{"CLASSIFICATION_TYPE":"U","NORAD_CAT_ID":"44741","TIME_SYSTEM":"UTC","ELEMENT_SET_NO":"999","ARG_OF_PERICENTER":"77.0009","MEAN_ANOMALY":"283.1167","OBJECT_ID":"2019-074AE","REV_AT_EPOCH":"10689","RCS_SIZE":"LARGE","INCLINATION":"53.0537","DECAY_DATE":null,"APOAPSIS":"548.354","TLE_LINE2":"2 44741  53.0537 201.7995 0001678  77.0009 283.1167 15.06406949106899","TLE_LINE1":"1 44741U 19074AE  21291.90557923  .00000845  00000-0  75635-4 0  9993","PERIOD":"95.592","SEMIMAJOR_AXIS":"6925.327","COUNTRY_CODE":"US","EPOCH":"2021-10-18T21:44:02.045472","BSTAR":"0.00007563500000","CENTER_NAME":"EARTH","LAUNCH_DATE":"2019-11-11","MEAN_ELEMENT_THEORY":"SGP4","PERIAPSIS":"546.030","RA_OF_ASC_NODE":"201.7995","SITE":"AFETR","FILE":"3170620","ECCENTRICITY":"0.00016780","GP_ID":"187534617","MEAN_MOTION_DDOT":"0.0000000000000","MEAN_MOTION_DOT":"0.00000845","OBJECT_NAME":"STARLINK-1036","OBJECT_TYPE":"PAYLOAD","MEAN_MOTION":"15.06406949","EPHEMERIS_TYPE":"0","REF_FRAME":"TEME"},{"COUNTRY_CODE":"US","BSTAR":"0.00022446000000","EPOCH":"2021-10-18T11:10:15.691296","PERIOD":"95.438","SEMIMAJOR_AXIS":"6917.922","PERIAPSIS":"537.965","RA_OF_ASC_NODE":"197.9171","MEAN_ELEMENT_THEORY":"SGP4","CENTER_NAME":"EARTH","LAUNCH_DATE":"2019-11-11","MEAN_MOTION_DDOT":"0.0000000000000","MEAN_MOTION_DOT":"0.00003285","GP_ID":"187501227","ECCENTRICITY":"0.00026330","FILE":"3170121","SITE":"AFETR","EPHEMERIS_TYPE":"0","REF_FRAME":"TEME","MEAN_MOTION":"15.08826456","OBJECT_TYPE":"PAYLOAD","OBJECT_NAME":"STARLINK-1037","NORAD_CAT_ID":"44742","CLASSIFICATION_TYPE":"U","ARG_OF_PERICENTER":"85.5241","MEAN_ANOMALY":"274.6049","ELEMENT_SET_NO":"999","TIME_SYSTEM":"UTC","INCLINATION":"52.9975","DECAY_DATE":null,"RCS_SIZE":"LARGE","REV_AT_EPOCH":"10688","OBJECT_ID":"2019-074AF","TLE_LINE2":"2 44742  52.9975 197.9171 0002633  85.5241 274.6049 15.08826456106884","TLE_LINE1":"1 44742U 19074AF  21291.46545939  .00003285  00000-0  22446-3 0  9991","APOAPSIS":"541.608"},{"MEAN_MOTION_DDOT":"0.0000000000000","MEAN_MOTION_DOT":"0.00000867","ECCENTRICITY":"0.00018280","GP_ID":"187535119","FILE":"3170620","SITE":"AFETR","REF_FRAME":"TEME","EPHEMERIS_TYPE":"0","MEAN_MOTION":"15.06401520","OBJECT_TYPE":"PAYLOAD","OBJECT_NAME":"STARLINK-1038","EPOCH":"2021-10-18T21:20:07.846944","BSTAR":"0.00007708600000","COUNTRY_CODE":"US","SEMIMAJOR_AXIS":"6925.344","PERIOD":"95.592","PERIAPSIS":"545.943","RA_OF_ASC_NODE":"221.8775","MEAN_ELEMENT_THEORY":"SGP4","LAUNCH_DATE":"2019-11-11","CENTER_NAME":"EARTH","DECAY_DATE":null,"INCLINATION":"53.0529","RCS_SIZE":"LARGE","REV_AT_EPOCH":"10670","OBJECT_ID":"2019-074AG","TLE_LINE1":"1 44743U 19074AG  21291.88897971  .00000867  00000-0  77086-4 0  9998","TLE_LINE2":"2 44743  53.0529 221.8775 0001828  72.8775 287.2414 15.06401520106701","APOAPSIS":"548.475","NORAD_CAT_ID":"44743","CLASSIFICATION_TYPE":"U","MEAN_ANOMALY":"287.2414","ARG_OF_PERICENTER":"72.8775","ELEMENT_SET_NO":"999","TIME_SYSTEM":"UTC"},{"FILE":"3170620","SITE":"AFETR","MEAN_MOTION_DOT":"0.00001251","MEAN_MOTION_DDOT":"0.0000000000000","GP_ID":"187535370","ECCENTRICITY":"0.00016950","OBJECT_TYPE":"PAYLOAD","OBJECT_NAME":"STARLINK-1039","REF_FRAME":"TEME","EPHEMERIS_TYPE":"0","MEAN_MOTION":"15.06399521","PERIOD":"95.592","SEMIMAJOR_AXIS":"6925.350","EPOCH":"2021-10-18T21:36:03.614112","BSTAR":"0.00010286000000","COUNTRY_CODE":"US","LAUNCH_DATE":"2019-11-11","CENTER_NAME":"EARTH","RA_OF_ASC_NODE":"221.8251","PERIAPSIS":"546.041","MEAN_ELEMENT_THEORY":"SGP4","REV_AT_EPOCH":"10661","OBJECT_ID":"2019-074AH","DECAY_DATE":null,"INCLINATION":"53.0540","RCS_SIZE":"LARGE","APOAPSIS":"548.389","TLE_LINE1":"1 44744U 19074AH  21291.90004183  .00001251  00000-0  10286-3 0  9993","TLE_LINE2":"2 44744  53.0540 221.8251 0001695  66.2678 293.8488 15.06399521106616","CLASSIFICATION_TYPE":"U","NORAD_CAT_ID":"44744","ELEMENT_SET_NO":"999","TIME_SYSTEM":"UTC","ARG_OF_PERICENTER":"66.2678","MEAN_ANOMALY":"293.8488"},{"NORAD_CAT_ID":"44746","CLASSIFICATION_TYPE":"U","ARG_OF_PERICENTER":"69.4695","MEAN_ANOMALY":"290.6466","ELEMENT_SET_NO":"999","TIME_SYSTEM":"UTC","RCS_SIZE":"LARGE","INCLINATION":"53.0538","DECAY_DATE":null,"REV_AT_EPOCH":"10661","OBJECT_ID":"2019-074AK","TLE_LINE2":"2 44746  53.0538 221.8761 0001598  69.4695 290.6466 15.06404696106618","TLE_LINE1":"1 44746U 19074AK  21291.88529389  .00001694  00000-0  13259-3 0  9996","APOAPSIS":"548.306","COUNTRY_CODE":"US","EPOCH":"2021-10-18T21:14:49.392096","BSTAR":"0.00013259000000","PERIOD":"95.592","SEMIMAJOR_AXIS":"6925.334","MEAN_ELEMENT_THEORY":"SGP4","PERIAPSIS":"546.092","RA_OF_ASC_NODE":"221.8761","CENTER_NAME":"EARTH","LAUNCH_DATE":"2019-11-11","ECCENTRICITY":"0.00015980","GP_ID":"187534118","MEAN_MOTION_DOT":"0.00001694","MEAN_MOTION_DDOT":"0.0000000000000","SITE":"AFETR","FILE":"3170620","MEAN_MOTION":"15.06404696","EPHEMERIS_TYPE":"0","REF_FRAME":"TEME","OBJECT_NAME":"STARLINK-1041","OBJECT_TYPE":"PAYLOAD"},{"APOAPSIS":"548.344","TLE_LINE2":"2 44747  53.0529 221.7622 0001634  76.7280 283.3891 15.06400316106623","TLE_LINE1":"1 44747U 19074AL  21291.91479069  .00000174  00000-0  30557-4 0  9993","OBJECT_ID":"2019-074AL","REV_AT_EPOCH":"10662","RCS_SIZE":"LARGE","INCLINATION":"53.0529","DECAY_DATE":null,"ELEMENT_SET_NO":"999","TIME_SYSTEM":"UTC","MEAN_ANOMALY":"283.3891","ARG_OF_PERICENTER":"76.7280","CLASSIFICATION_TYPE":"U","NORAD_CAT_ID":"44747","OBJECT_NAME":"STARLINK-1042","OBJECT_TYPE":"PAYLOAD","MEAN_MOTION":"15.06400316","EPHEMERIS_TYPE":"0","REF_FRAME":"TEME","SITE":"AFETR","FILE":"3170620","GP_ID":"187534368","ECCENTRICITY":"0.00016340","MEAN_MOTION_DOT":"0.00000174","MEAN_MOTION_DDOT":"0.0000000000000","CENTER_NAME":"EARTH","LAUNCH_DATE":"2019-11-11","MEAN_ELEMENT_THEORY":"SGP4","PERIAPSIS":"546.081","RA_OF_ASC_NODE":"221.7622","PERIOD":"95.592","SEMIMAJOR_AXIS":"6925.348","COUNTRY_CODE":"US","EPOCH":"2021-10-18T21:57:17.915616","BSTAR":"0.00003055700000"},{"PERIOD":"95.592","SEMIMAJOR_AXIS":"6925.340","COUNTRY_CODE":"US","BSTAR":"-0.00002397600000","EPOCH":"2021-10-18T19:28:40.992384","CENTER_NAME":"EARTH","LAUNCH_DATE":"2019-11-11","RA_OF_ASC_NODE":"222.2164","PERIAPSIS":"546.027","MEAN_ELEMENT_THEORY":"SGP4","FILE":"3170620","SITE":"AFETR","MEAN_MOTION_DDOT":"0.0000000000000","MEAN_MOTION_DOT":"-0.00000639","ECCENTRICITY":"0.00017020","GP_ID":"187535619","OBJECT_TYPE":"PAYLOAD","OBJECT_NAME":"STARLINK-1043","EPHEMERIS_TYPE":"0","REF_FRAME":"TEME","MEAN_MOTION":"15.06402723","CLASSIFICATION_TYPE":"U","NORAD_CAT_ID":"44748","TIME_SYSTEM":"UTC","ELEMENT_SET_NO":"999","MEAN_ANOMALY":"290.7055","ARG_OF_PERICENTER":"69.4116","OBJECT_ID":"2019-074AM","REV_AT_EPOCH":"10660","INCLINATION":"53.0539","DECAY_DATE":null,"RCS_SIZE":"LARGE","APOAPSIS":"548.384","TLE_LINE2":"2 44748  53.0539 222.2164 0001702  69.4116 290.7055 15.06402723106601","TLE_LINE1":"1 44748U 19074AM  21291.81158556 -.00000639  00000-0 -23976-4 0  9993"},{"ECCENTRICITY":"0.00016670","GP_ID":"187502729","MEAN_MOTION_DOT":"0.00002199","MEAN_MOTION_DDOT":"0.0000000000000","SITE":"AFETR","FILE":"3170121","MEAN_MOTION":"15.06401186","EPHEMERIS_TYPE":"0","REF_FRAME":"TEME","OBJECT_NAME":"STARLINK-1046","OBJECT_TYPE":"PAYLOAD","COUNTRY_CODE":"US","BSTAR":"0.00016646000000","EPOCH":"2021-10-18T07:05:36.852288","SEMIMAJOR_AXIS":"6925.345","PERIOD":"95.592","MEAN_ELEMENT_THEORY":"SGP4","PERIAPSIS":"546.055","RA_OF_ASC_NODE":"224.5427","CENTER_NAME":"EARTH","LAUNCH_DATE":"2019-11-11","RCS_SIZE":"LARGE","INCLINATION":"53.0553","DECAY_DATE":null,"REV_AT_EPOCH":"10652","OBJECT_ID":"2019-074AQ","TLE_LINE2":"2 44751  53.0553 224.5427 0001667  65.0116 295.1046 15.06401186106522","TLE_LINE1":"1 44751U 19074AQ  21291.29556542  .00002199  00000-0  16646-3 0  9992","APOAPSIS":"548.364","NORAD_CAT_ID":"44751","CLASSIFICATION_TYPE":"U","MEAN_ANOMALY":"295.1046","ARG_OF_PERICENTER":"65.0116","ELEMENT_SET_NO":"999","TIME_SYSTEM":"UTC"}];
